STARLINK-3707           
1 52133U 22029AX  26189.42341745  .00002003  00000+0  14393-3 0  9992
2 52133  53.1606 246.9003 0001168  80.9423 279.1701 15.08830276239161
STARLINK-3721           
1 52134U 22029AY  26189.42711898  .00001073  00000+0  85522-4 0  9992
2 52134  53.1587 246.8855 0001300  86.6772 273.4369 15.08821046239164
STARLINK-3720           
1 52136U 22029BA  26189.41973755  .00002401  00000+0  16892-3 0  9994
2 52136  53.1591 246.9152 0000864  66.1375 293.9706 15.08831015239167
STARLINK-3733           
1 52137U 22029BB  26189.54119832  .00001309  00000+0  10034-3 0  9995
2 52137  53.1582 246.3703 0000910  97.0028 263.1067 15.08824931239184
STARLINK-3723           
1 52138U 22029BC  26189.41605908  .00000704  00000+0  62355-4 0  9998
2 52138  53.1591 246.9350 0001362  90.2405 269.8742 15.08822900239160
STARLINK-3730           
1 52139U 22029BD  26189.58336806  .00114659  00000+0  38686-2 0  9998
2 52139  53.1592 254.9347 0001689  97.0820 122.2487 15.29824315  5743
STARLINK-3682           
1 52140U 22029BE  26189.14007886  .00001751  00000+0  12811-3 0  9996
2 52140  53.1590 248.1737 0001042 108.3605 251.7500 15.08820564239125
STARLINK-3761           
1 52262U 22041B   26189.26886881  .00001656  00000+0  12217-3 0  9992
2 52262  53.1603 287.5499 0001678  74.8466 285.2711 15.08833027232569
STARLINK-3786           
1 52263U 22041C   26189.53749472  .00000450  00000+0  46358-4 0  9992
2 52263  53.1605 286.3897 0001005  97.9273 262.1832 15.08844154232603
STARLINK-3795           
1 52264U 22041D   26189.58336806  .00012013  00000+0  36625-3 0  9994
2 52264  53.1589 283.5108 0001279  77.1495 147.6550 15.34387358  5742
STARLINK-3740           
1 52265U 22041E   26189.58336806  .00033129  00000+0  13372-2 0  9999
2 52265  53.1589 285.3267 0000900  51.6072 340.9179 15.24516002  5549
STARLINK-3739           
1 52266U 22041F   26189.30740119  .00007515  00000+0  47410-3 0  9997
2 52266  53.2142 287.4634 0001359  29.9923 330.1148 15.10038534232575
STARLINK-3748           
1 52267U 22041G   26189.58336806  .00036687  00000+0  15977-2 0  9996
2 52267  53.1598 285.5283 0001395  75.4951 256.3913 15.21896414  5798
STARLINK-3746           
1 52268U 22041H   26189.58336806  .00070741  00000+0  25650-2 0  9995
2 52268  53.1611 284.9712 0000320 103.9974 212.3539 15.27727746  5854
STARLINK-3791           
1 52269U 22041J   26189.25047906  .00003017  00000+0  20768-3 0  9998
2 52269  53.1586 287.6792 0001293 102.0916 258.0221 15.08821888232566
STARLINK-3804           
1 52270U 22041K   26189.30936144  .00001343  00000+0  10246-3 0  9997
2 52270  53.1602 287.4442 0001122 100.3205 259.7914 15.08825126232577
STARLINK-3788           
1 52271U 22041L   26188.31943484  .00002706  00000+0  18815-3 0  9997
2 52271  53.1596 291.8649 0001281  89.4692 270.6447 15.08812004232429
STARLINK-3781           
1 52272U 22041M   26189.58336806  .00001466  00000+0  63104-4 0  9996
2 52272  53.1600 284.9413 0000971  70.0969 295.3877 15.29358480  5757
STARLINK-3782           
1 52273U 22041N   26189.58336806  .00087604  00000+0  31946-2 0  9992
2 52273  53.1587 275.8265 0001413 100.3142 142.9768 15.27434495  5809
STARLINK-3790           
1 52274U 22041P   26189.58336806 -.00023988  00000+0 -82147-3 0  9990
2 52274  53.1640 285.1662 0001309  74.6028 200.2880 15.29361303  5751
STARLINK-3784           
1 52275U 22041Q   26189.23942214  .00000452  00000+0  46509-4 0  9991
2 52275  53.1588 287.7265 0001067 105.5201 254.5908 15.08832085232569
STARLINK-3778           
1 52276U 22041R   26189.55957874  .00001226  00000+0  95120-4 0  9998
2 52276  53.1614 286.2909 0001246  95.7225 264.3908 15.08829806232616
STARLINK-3780           
1 52278U 22041T   26189.55590309  .00001628  00000+0  12037-3 0  9997
2 52278  53.1602 286.3072 0001079  87.4769 272.6346 15.08828424232615
STARLINK-3764           
1 52280U 22041V   26189.58336806  .00066903  00000+0  24056-2 0  9993
2 52280  53.1583 285.1459 0000763  90.9958 293.4459 15.28030110  5804
STARLINK-3779           
1 52281U 22041W   26189.56054372  .00001573  00000+0  11693-3 0  9993
2 52281  53.1594 286.2861 0001200  88.1691 271.9438 15.08825944232610
STARLINK-3783           
1 52282U 22041X   26189.58336806  .00046718  00000+0  24555-2 0  9991
2 52282  53.1617 275.9938 0001901  61.4706 282.2739 15.15250784  5547
STARLINK-3789           
1 52283U 22041Y   26189.55222700  .00001586  00000+0  11776-3 0  9992
2 52283  53.1611 286.3242 0001362  90.3293 269.7854 15.08827936232618
STARLINK-3561           
1 52284U 22041Z   26189.57936063  .00041966  00000+0  23874-2 0  9996
2 52284  53.1611 276.0113 0001330  76.5480 283.5661 15.12477936232752
STARLINK-3802           
1 52286U 22041AB  26189.58336806  .00045041  00000+0  23306-2 0  9996
2 52286  53.1593 276.0369 0000645  92.1584 308.2760 15.15821226  5743
STARLINK-3822           
1 52287U 22041AC  26189.58336806  .00081794  00000+0  29902-2 0  9990
2 52287  53.1602 285.4564 0001387  97.5815 148.0038 15.27386649  5742
