OBJECT_NAME,OBJECT_ID,EPOCH,MEAN_MOTION,ECCENTRICITY,INCLINATION,RA_OF_ASC_NODE,ARG_OF_PERICENTER,MEAN_ANOMALY,EPHEMERIS_TYPE,CLASSIFICATION_TYPE,NORAD_CAT_ID,ELEMENT_SET_NO,REV_AT_EPOCH,BSTAR,MEAN_MOTION_DOT,MEAN_MOTION_DDOT
STARLINK-3707,2022-029AX,2026-07-08T10:09:43.267680,15.08830276,.00011688,53.1606,246.9003,80.9423,279.1701,0,U,52133,999,23916,.14393493E-3,.2003E-4,0
STARLINK-3721,2022-029AY,2026-07-08T10:15:03.079872,15.08821046,.00013004,53.1587,246.8855,86.6772,273.4369,0,U,52134,999,23916,.85521713E-4,.1073E-4,0
STARLINK-3720,2022-029BA,2026-07-08T10:04:25.324320,15.08831015,.0000864,53.1591,246.9152,66.1375,293.9706,0,U,52136,999,23916,.16891532E-3,.2401E-4,0
STARLINK-3733,2022-029BB,2026-07-08T12:59:19.534848,15.08824931,.00009102,53.1582,246.3703,97.0028,263.1067,0,U,52137,999,23918,.10034299E-3,.1309E-4,0
STARLINK-3723,2022-029BC,2026-07-08T09:59:07.504512,15.08822900,.00013623,53.1591,246.9350,90.2405,269.8742,0,U,52138,999,23916,.6235532E-4,.704E-5,0
STARLINK-3730,2022-029BD,2026-07-08T14:00:03.000384,15.29824315,.0001689,53.1592,254.9347,97.0820,122.2487,0,U,52139,999,574,.38686343E-2,.114659E-2,0
STARLINK-3682,2022-029BE,2026-07-08T03:21:42.813504,15.08820564,.00010426,53.1590,248.1737,108.3605,251.7500,0,U,52140,999,23912,.12810633E-3,.1751E-4,0
STARLINK-3761,2022-041B,2026-07-08T06:27:10.265184,15.08833027,.0001678,53.1603,287.5499,74.8466,285.2711,0,U,52262,999,23256,.12216727E-3,.1656E-4,0
STARLINK-3786,2022-041C,2026-07-08T12:53:59.543808,15.08844154,.0001005,53.1605,286.3897,97.9273,262.1832,0,U,52263,999,23260,.46358031E-4,.45E-5,0
STARLINK-3795,2022-041D,2026-07-08T14:00:03.000384,15.34387358,.00012796,53.1589,283.5108,77.1495,147.6550,0,U,52264,999,574,.366246E-3,.12013E-3,0
STARLINK-3740,2022-041E,2026-07-08T14:00:03.000384,15.24516002,.00009004,53.1589,285.3267,51.6072,340.9179,0,U,52265,999,554,.13371881E-2,.33129E-3,0
STARLINK-3739,2022-041F,2026-07-08T07:22:39.462816,15.10038534,.00013598,53.2142,287.4634,29.9923,330.1148,0,U,52266,999,23257,.47409979E-3,.7515E-4,0
STARLINK-3748,2022-041G,2026-07-08T14:00:03.000384,15.21896414,.00013957,53.1598,285.5283,75.4951,256.3913,0,U,52267,999,579,.15976814E-2,.36687E-3,0
STARLINK-3746,2022-041H,2026-07-08T14:00:03.000384,15.27727746,.00003202,53.1611,284.9712,103.9974,212.3539,0,U,52268,999,585,.25650482E-2,.70741E-3,0
STARLINK-3791,2022-041J,2026-07-08T06:00:41.390784,15.08821888,.00012939,53.1586,287.6792,102.0916,258.0221,0,U,52269,999,23256,.20768279E-3,.3017E-4,0
STARLINK-3804,2022-041K,2026-07-08T07:25:28.828416,15.08825126,.00011224,53.1602,287.4442,100.3205,259.7914,0,U,52270,999,23257,.10246112E-3,.1343E-4,0
STARLINK-3788,2022-041L,2026-07-07T07:39:59.170176,15.08812004,.00012815,53.1596,291.8649,89.4692,270.6447,0,U,52271,999,23242,.18815443E-3,.2706E-4,0
STARLINK-3781,2022-041M,2026-07-08T14:00:03.000384,15.29358480,.00009712,53.1600,284.9413,70.0969,295.3877,0,U,52272,999,575,.63103677E-4,.1466E-4,0
STARLINK-3782,2022-041N,2026-07-08T14:00:03.000384,15.27434495,.00014132,53.1587,275.8265,100.3142,142.9768,0,U,52273,999,580,.31945724E-2,.87604E-3,0
STARLINK-3790,2022-041P,2026-07-08T14:00:03.000384,15.29361303,.00013092,53.1640,285.1662,74.6028,200.2880,0,U,52274,999,575,-.82146881E-3,-.23988E-3,0
STARLINK-3784,2022-041Q,2026-07-08T05:44:46.072896,15.08832085,.0001067,53.1588,287.7265,105.5201,254.5908,0,U,52275,999,23256,.46508941E-4,.452E-5,0
STARLINK-3778,2022-041R,2026-07-08T13:25:47.603136,15.08829806,.00012469,53.1614,286.2909,95.7225,264.3908,0,U,52276,999,23261,.95120094E-4,.1226E-4,0
STARLINK-3780,2022-041T,2026-07-08T13:20:30.026976,15.08828424,.00010794,53.1602,286.3072,87.4769,272.6346,0,U,52278,999,23261,.12037305E-3,.1628E-4,0
STARLINK-3764,2022-041V,2026-07-08T14:00:03.000384,15.28030110,.00007638,53.1583,285.1459,90.9958,293.4459,0,U,52280,999,580,.24055713E-2,.66903E-3,0
STARLINK-3779,2022-041W,2026-07-08T13:27:10.977408,15.08825944,.00012004,53.1594,286.2861,88.1691,271.9438,0,U,52281,999,23261,.11692923E-3,.1573E-4,0
STARLINK-3783,2022-041X,2026-07-08T14:00:03.000384,15.15250784,.00019017,53.1617,275.9938,61.4706,282.2739,0,U,52282,999,554,.24554963E-2,.46718E-3,0
STARLINK-3789,2022-041Y,2026-07-08T13:15:12.412800,15.08827936,.00013629,53.1611,286.3242,90.3293,269.7854,0,U,52283,999,23261,.11776251E-3,.1586E-4,0
STARLINK-3561,2022-041Z,2026-07-08T13:54:16.758432,15.12477936,.00013309,53.1611,276.0113,76.5480,283.5661,0,U,52284,999,23275,.23874469E-2,.41966E-3,0
STARLINK-3802,2022-041AB,2026-07-08T14:00:03.000384,15.15821226,.00006454,53.1593,276.0369,92.1584,308.2760,0,U,52286,999,574,.23305503E-2,.45041E-3,0
STARLINK-3822,2022-041AC,2026-07-08T14:00:03.000384,15.27386649,.00013871,53.1602,285.4564,97.5815,148.0038,0,U,52287,999,574,.29902433E-2,.81794E-3,0
